NORAD_CAT_ID,OBJECT_NAME,OBJECT_TYPE,EPOCH,MEAN_MOTION,ECCENTRICITY,INCLINATION,RA_OF_ASC_NODE,ARG_OF_PERICENTER,MEAN_ANOMALY,BSTAR,MEAN_MOTION_DOT,MEAN_MOTION_DDOT,TLE_LINE0,TLE_LINE1,TLE_LINE2,SEMIMAJOR_AXIS,PERIOD,APOGEE,PERIGEE,DECAYED
53005.0,STARLINK-4288,PAYLOAD,2023-01-30 08:45:32,15.08833762,9.18e-05,53.217,146.3056,86.7761,273.3336,0.00010065,1.314e-05,0.0,0 STARLINK-4288,1 53005U 22076V   23030.36496513  .00001314  00000-0  10065-3 0  9999,2 53005  53.2170 146.3056 0000918  86.7761 273.3336 15.08833762 32073,6917.899,95.438,540.4,539.129,0.0
53005.0,STARLINK-4288,PAYLOAD,2023-01-30 11:56:19,15.08837556,9.05e-05,53.2172,145.7109,85.2313,274.8782,0.00018517,2.66e-05,0.0,0 STARLINK-4288,1 53005U 22076V   23030.49744442  .00002660  00000-0  18517-3 0  9995,2 53005  53.2172 145.7109 0000905  85.2313 274.8782 15.08837556 31626,6917.888,95.438,540.379,539.127,0.0
53005.0,STARLINK-4288,PAYLOAD,2023-01-31 11:47:05,15.08852767,0.0001021,53.2169,141.2504,71.6992,288.4111,0.00013711,1.896e-05,0.0,0 STARLINK-4288,1 53005U 22076V   23031.49103863  .00001896  00000-0  13711-3 0  9993,2 53005  53.2169 141.2504 0001021  71.6992 288.4111 15.08852767 32241,6917.841,95.437,540.413,539.0,0.0
53005.0,STARLINK-4288,PAYLOAD,2023-01-31 16:33:15,15.08851715,9.87e-05,53.2173,140.3586,73.4915,286.6185,0.00034575,5.221e-05,0.0,0 STARLINK-4288,1 53005U 22076V   23031.68976014  .00005221  00000-0  34575-3 0  9997,2 53005  53.2173 140.3586 0000987  73.4915 286.6185 15.08851715 31805,6917.845,95.437,540.392,539.027,0.0
53005.0,STARLINK-4288,PAYLOAD,2023-02-01 06:51:44,15.08838888,0.0001431,53.217,137.6827,74.9251,285.19,9.4035e-05,1.209e-05,0.0,0 STARLINK-4288,1 53005U 22076V   23032.28592765  .00001209  00000-0  94035-4 0  9991,2 53005  53.2170 137.6827 0001431  74.9251 285.1900 15.08838888 32360,6917.884,95.438,540.739,538.759,0.0
53005.0,STARLINK-4288,PAYLOAD,2023-02-01 13:13:16,15.08839597,0.000122,53.2168,136.4931,76.3334,283.7794,8.4376e-05,1.055e-05,0.0,0 STARLINK-4288,1 53005U 22076V   23032.55088658  .00001055  00000-0  84376-4 0  9998,2 53005  53.2168 136.4931 0001220  76.3334 283.7794 15.08839597 31939,6917.882,95.438,540.591,538.903,0.0
53005.0,STARLINK-4288,PAYLOAD,2023-02-02 13:04:03,15.08849367,0.0001408,53.2174,132.034,73.2653,286.8494,0.00041955,6.397e-05,0.0,0 STARLINK-4288,1 53005U 22076V   23033.54448602  .00006397  00000-0  41955-3 0  9996,2 53005  53.2174 132.0340 0001408  73.2653 286.8494 15.08849367 32084,6917.852,95.437,540.691,538.743,0.0
53005.0,STARLINK-4288,PAYLOAD,2023-02-02 16:14:49,15.08852718,0.0001459,53.2171,131.438,82.5291,277.5867,0.00050891,7.823e-05,0.0,0 STARLINK-4288,1 53005U 22076V   23033.67696460  .00007823  00000-0  50891-3 0  9991,2 53005  53.2171 131.4380 0001459  82.5291 277.5867 15.08852718 32574,6917.842,95.437,540.716,538.697,0.0
53005.0,STARLINK-4288,PAYLOAD,2023-02-03 06:33:18,15.08842753,0.0001147,53.217,128.7589,101.6953,258.4168,0.00013843,1.916e-05,0.0,0 STARLINK-4288,1 53005U 22076V   23034.27312602  .00001916  00000-0  13843-3 0  9994,2 53005  53.2170 128.7589 0001147 101.6953 258.4168 15.08842753 32665,6917.872,95.437,540.53,538.943,0.0
53005.0,STARLINK-4288,PAYLOAD,2023-02-03 09:44:04,15.08844184,0.000144,53.216,128.1645,101.8757,258.2396,0.00017687,2.528e-05,0.0,0 STARLINK-4288,1 53005U 22076V   23034.40560606  .00002528  00000-0  17687-3 0  9998,2 53005  53.2160 128.1645 0001440 101.8757 258.2396 15.08844184 32213,6917.868,95.437,540.729,538.736,0.0
53005.0,STARLINK-4288,PAYLOAD,2023-02-03 16:05:36,15.08847145,0.0001223,53.2175,126.9779,85.019,275.0942,0.00024002,3.535e-05,0.0,0 STARLINK-4288,1 53005U 22076V   23034.67056558  .00003535  00000-0  24002-3 0  9991,2 53005  53.2175 126.9779 0001223  85.0190 275.0942 15.08847145 32254,6917.859,95.437,540.57,538.877,0.0
53005.0,STARLINK-4288,PAYLOAD,2023-02-04 14:21:00,15.08852701,0.0001439,53.2182,122.8145,79.0854,281.03,0.00039845,6.061e-05,0.0,0 STARLINK-4288,1 53005U 22076V   23035.59792302  .00006061  00000-0  39845-3 0  9995,2 53005  53.2182 122.8145 0001439  79.0854 281.0300 15.08852701 32869,6917.842,95.437,540.702,538.711,0.0
53005.0,STARLINK-4288,PAYLOAD,2023-02-04 22:17:56,15.08842033,0.000122,53.2186,121.3291,83.8822,276.2309,0.00023917,3.521e-05,0.0,0 STARLINK-4288,1 53005U 22076V   23035.92912539  .00003521  00000-0  23917-3 0  9999,2 53005  53.2186 121.3291 0001220  83.8822 276.2309 15.08842033 32913,6917.874,95.437,540.583,538.895,0.0
53005.0,STARLINK-4288,PAYLOAD,2023-02-05 14:11:47,15.08838896,0.0001243,53.2183,118.3577,104.6538,255.4592,4.392e-05,4.11e-06,0.0,0 STARLINK-4288,1 53005U 22076V   23036.59152738  .00000411  00000-0  43920-4 0  9992,2 53005  53.2183 118.3577 0001243 104.6538 255.4592 15.08838896 32548,6917.884,95.438,540.609,538.889,0.0
53005.0,STARLINK-4288,PAYLOAD,2023-02-05 22:08:43,15.08840236,9.42e-05,53.2176,116.8697,97.4009,262.709,9.5468e-05,1.232e-05,0.0,0 STARLINK-4288,1 53005U 22076V   23036.92272693  .00001232  00000-0  95468-4 0  9998,2 53005  53.2176 116.8697 0000942  97.4009 262.7090 15.08840236 32593,6917.88,95.438,540.396,539.093,0.0
53005.0,STARLINK-4288,PAYLOAD,2023-02-06 12:27:11,15.08852615,0.000122,53.2181,114.1936,110.1411,249.9712,0.00039746,6.045e-05,0.0,0 STARLINK-4288,1 53005U 22076V   23037.51888327  .00006045  00000-0  39746-3 0  9994,2 53005  53.2181 114.1936 0001220 110.1411 249.9712 15.08852615 32688,6917.842,95.437,540.551,538.863,0.0
53005.0,STARLINK-4288,PAYLOAD,2023-02-06 15:37:57,15.08862135,0.0001208,53.2169,113.5976,108.2161,251.8963,0.00082172,0.00012822,0.0,0 STARLINK-4288,1 53005U 22076V   23037.65136143  .00012822  00000-0  82172-3 0  9992,2 53005  53.2169 113.5976 0001208 108.2161 251.8963 15.08862135 32708,6917.813,95.436,540.513,538.842,0.0
53005.0,STARLINK-4288,PAYLOAD,2023-02-06 21:59:30,15.0885247,0.0001573,53.2165,112.4058,87.0195,273.0977,0.00055619,8.578e-05,0.0,0 STARLINK-4288,1 53005U 22076V   23037.91632426  .00008578  00000-0  55619-3 0  9995,2 53005  53.2165 112.4058 0001573  87.0195 273.0977 15.08852470 33218,6917.842,95.437,540.795,538.619,0.0
53005.0,STARLINK-4288,PAYLOAD,2023-02-07 13:53:21,15.08866905,0.0001073,53.2155,109.4342,89.4444,270.6671,0.00097849,0.0001533,0.0,0 STARLINK-4288,1 53005U 22076V   23038.57871650  .00015330  00000-0  97849-3 0  9997,2 53005  53.2155 109.4342 0001073  89.4444 270.6671 15.08866905 32847,6917.798,95.436,540.405,538.921,0.0
53005.0,STARLINK-4288,PAYLOAD,2023-02-07 21:50:16,15.08839909,6.99e-05,53.216,107.9484,97.5859,262.5212,9.9362e-05,1.294e-05,0.0,0 STARLINK-4288,1 53005U 22076V   23038.90991842  .00001294  00000-0  99362-4 0  9997,2 53005  53.2160 107.9484 0000699  97.5859 262.5212 15.08839909 33369,6917.881,95.438,540.229,539.262,0.0
53005.0,STARLINK-4288,PAYLOAD,2023-02-08 10:33:22,15.08859105,0.0001292,53.2152,105.5687,88.0627,272.0513,0.00213,0.00033792,0.0,0 STARLINK-4288,1 53005U 22076V   23039.43983919  .00033792  00000-0  21300-2 0  9995,2 53005  53.2152 105.5687 0001292  88.0627 272.0513 15.08859105 33446,6917.822,95.436,540.581,538.793,0.0
53005.0,STARLINK-4288,PAYLOAD,2023-02-09 04:02:37,15.08857623,0.0001733,53.2156,102.2992,107.9446,252.1736,0.0023155,0.00036774,0.0,0 STARLINK-4288,1 53005U 22076V   23040.16848477  .00036774  00000-0  23155-2 0  9999,2 53005  53.2156 102.2992 0001733 107.9446 252.1736 15.08857623 33554,6917.827,95.436,540.89,538.493,0.0
53005.0,STARLINK-4288,PAYLOAD,2023-02-09 10:24:09,15.08847354,0.0001355,53.2151,101.1077,107.3643,252.7498,0.0026743,0.00042539,0.0,0 STARLINK-4288,1 53005U 22076V   23040.43344495  .00042539  00000-0  26743-2 0  9992,2 53005  53.2151 101.1077 0001355 107.3643 252.7498 15.08847354 33128,6917.858,95.437,540.66,538.786,0.0
53005.0,STARLINK-4288,PAYLOAD,2023-02-09 21:31:52,15.08845087,0.0001988,53.2157,99.0254,86.7431,273.3789,0.0019843,0.00031438,0.0,0 STARLINK-4288,1 53005U 22076V   23040.89713189  .00031438  00000-0  19843-2 0  9991,2 53005  53.2157  99.0254 0001988  86.7431 273.3789 15.08845087 33665,6917.865,95.437,541.105,538.355,0.0
53005.0,STARLINK-4288,PAYLOAD,2023-02-10 03:53:24,15.0884868,0.0001973,53.2164,97.8359,115.9586,244.161,0.0017601,0.00027842,0.0,0 STARLINK-4288,1 53005U 22076V   23041.16209125  .00027842  00000-0  17601-2 0  9996,2 53005  53.2164  97.8359 0001973 115.9586 244.1610 15.08848680 33239,6917.854,95.437,541.084,538.354,0.0
53005.0,STARLINK-4288,PAYLOAD,2023-02-10 10:14:57,15.08844162,0.000178,53.2161,96.6457,108.1666,251.952,0.0010429,0.00016351,0.0,0 STARLINK-4288,1 53005U 22076V   23041.42705165  .00016351  00000-0  10429-2 0  9994,2 53005  53.2161  96.6457 0001780 108.1666 251.9520 15.08844162 33744,6917.868,95.437,540.964,538.501,0.0
53005.0,STARLINK-4288,PAYLOAD,2023-02-11 19:38:03,15.08842952,0.0001382,53.2167,90.4016,115.2406,244.8729,0.00065963,0.00010226,0.0,0 STARLINK-4288,1 53005U 22076V   23042.81809471  .00010226  00000-0  65963-3 0  9992,2 53005  53.2167  90.4016 0001382 115.2406 244.8729 15.08842952 33952,6917.871,95.437,540.692,538.78,0.0
53005.0,STARLINK-4288,PAYLOAD,2023-02-12 09:56:31,15.08850005,0.0001849,53.218,87.7296,121.4459,238.6714,0.00079067,0.00012321,0.0,0 STARLINK-4288,1 53005U 22076V   23043.41425546  .00012321  00000-0  79067-3 0  9994,2 53005  53.2180  87.7296 0001849 121.4459 238.6714 15.08850005 33572,6917.85,95.437,540.994,538.436,0.0
53005.0,STARLINK-4288,PAYLOAD,2023-02-12 19:28:50,15.08859864,4.53e-05,53.2173,85.9408,112.3892,247.7148,0.0009714,0.00015214,0.0,0 STARLINK-4288,1 53005U 22076V   23043.81169065  .00015214  00000-0  97140-3 0  9995,2 53005  53.2173  85.9408 0000453 112.3892 247.7148 15.08859864 34103,6917.82,95.436,539.998,539.371,0.0
53005.0,STARLINK-4288,PAYLOAD,2023-02-13 12:58:04,15.08847123,0.0001456,53.2174,82.6691,83.0147,277.1011,0.00032464,4.883e-05,0.0,0 STARLINK-4288,1 53005U 22076V   23044.54033413  .00004883  00000-0  32464-3 0  9991,2 53005  53.2174  82.6691 0001456  83.0147 277.1011 15.08847123 34216,6917.859,95.437,540.731,538.716,0.0
